{
  "type": "FeatureCollection",
  "features": [
    {
      "type": "Feature",
      "properties": {
        "norad_id": 40938,
        "name": "BEIDOU-3S IGSO-2S (C56)",
        "group": "gnss",
        "lat": 31.81321120080814,
        "lon": 49.1108657484874,
        "alt_km": 35624.8986695382,
        "timestamp": "2025-12-09T14:52:26.404747+00:00",
        "meta_object_name": "BEIDOU-3S IGSO-2S (C56)",
        "meta_object_id": "2015-053A",
        "meta_epoch": "2025-12-07T17:59:38.817312",
        "meta_mean_motion": 1.00270783,
        "meta_eccentricity": 0.0060962,
        "meta_inclination": 49.5194,
        "meta_ra_of_asc_node": 261.0646,
        "meta_arg_of_pericenter": 188.6217,
        "meta_mean_anomaly": 353.0712,
        "meta_ephemeris_type": 0,
        "meta_classification_type": "U",
        "meta_norad_cat_id": 40938,
        "meta_element_set_no": 999,
        "meta_rev_at_epoch": 3743,
        "meta_bstar": 0,
        "meta_mean_motion_dot": -1.42e-06,
        "meta_mean_motion_ddot": 0,
        "tle_line1": "1 40938U 15053A   25341.74975483 -.00000142  00000+0  00000+0 0  9996",
        "tle_line2": "2 40938  49.5194 261.0646 0060962 188.6217 353.0712  1.00270783 37435"
      },
      "geometry": {
        "type": "Point",
        "coordinates": [
          49.1108657484874,
          31.81321120080814
        ]
      }
    },
    {
      "type": "Feature",
      "properties": {
        "norad_id": 41019,
        "name": "GPS BIIF-11 (PRN 10)",
        "group": "gnss",
        "lat": -28.89996456239772,
        "lon": -120.71326641984213,
        "alt_km": 19900.431298984466,
        "timestamp": "2025-12-09T14:52:26.404761+00:00",
        "meta_object_name": "GPS BIIF-11 (PRN 10)",
        "meta_object_id": "2015-062A",
        "meta_epoch": "2025-12-08T07:44:45.982752",
        "meta_mean_motion": 2.00566979,
        "meta_eccentricity": 0.01106922,
        "meta_inclination": 56.829,
        "meta_ra_of_asc_node": 38.1732,
        "meta_arg_of_pericenter": 229.8078,
        "meta_mean_anomaly": 129.2726,
        "meta_ephemeris_type": 0,
        "meta_classification_type": "U",
        "meta_norad_cat_id": 41019,
        "meta_element_set_no": 999,
        "meta_rev_at_epoch": 7400,
        "meta_bstar": 0,
        "meta_mean_motion_dot": -7.7e-07,
        "meta_mean_motion_ddot": 0,
        "tle_line1": "1 41019U 15062A   25342.32275443 -.00000077  00000+0  00000+0 0  9998",
        "tle_line2": "2 41019  56.8290  38.1732 0110692 229.8078 129.2726  2.00566979 74000"
      },
      "geometry": {
        "type": "Point",
        "coordinates": [
          -120.71326641984213,
          -28.89996456239772
        ]
      }
    },
    {
      "type": "Feature",
      "properties": {
        "norad_id": 41028,
        "name": "GSAT-15 (GAGAN/PRN 139)",
        "group": "gnss",
        "lat": -0.017848785424967338,
        "lon": 35.22858831221662,
        "alt_km": 35797.48819081606,
        "timestamp": "2025-12-09T14:52:26.404773+00:00",
        "meta_object_name": "GSAT-15 (GAGAN/PRN 139)",
        "meta_object_id": "2015-065A",
        "meta_epoch": "2025-12-09T01:54:51.422976",
        "meta_mean_motion": 1.00270559,
        "meta_eccentricity": 0.00028761,
        "meta_inclination": 0.0446,
        "meta_ra_of_asc_node": 97.4412,
        "meta_arg_of_pericenter": 142.8585,
        "meta_mean_anomaly": 319.9925,
        "meta_ephemeris_type": 0,
        "meta_classification_type": "U",
        "meta_norad_cat_id": 41028,
        "meta_element_set_no": 999,
        "meta_rev_at_epoch": 3689,
        "meta_bstar": 0,
        "meta_mean_motion_dot": -2.56e-06,
        "meta_mean_motion_ddot": 0,
        "tle_line1": "1 41028U 15065A   25343.07976184 -.00000256  00000+0  00000+0 0  9993",
        "tle_line2": "2 41028   0.0446  97.4412 0002876 142.8585 319.9925  1.00270559 36897"
      },
      "geometry": {
        "type": "Point",
        "coordinates": [
          35.22858831221662,
          -0.017848785424967338
        ]
      }
    },
    {
      "type": "Feature",
      "properties": {
        "norad_id": 41174,
        "name": "GSAT0209 (GALILEO 12)",
        "group": "gnss",
        "lat": 23.756578855609977,
        "lon": 123.91529463833281,
        "alt_km": 23213.49530263837,
        "timestamp": "2025-12-09T14:52:26.404784+00:00",
        "meta_object_name": "GSAT0209 (GALILEO 12)",
        "meta_object_id": "2015-079A",
        "meta_epoch": "2025-12-08T09:34:38.512704",
        "meta_mean_motion": 1.70474355,
        "meta_eccentricity": 0.00023972,
        "meta_inclination": 55.7104,
        "meta_ra_of_asc_node": 106.5001,
        "meta_arg_of_pericenter": 353.8677,
        "meta_mean_anomaly": 6.0907,
        "meta_ephemeris_type": 0,
        "meta_classification_type": "U",
        "meta_norad_cat_id": 41174,
        "meta_element_set_no": 999,
        "meta_rev_at_epoch": 6152,
        "meta_bstar": 0,
        "meta_mean_motion_dot": 1e-07,
        "meta_mean_motion_ddot": 0,
        "tle_line1": "1 41174U 15079A   25342.39905686  .00000010  00000+0  00000+0 0  9990",
        "tle_line2": "2 41174  55.7104 106.5001 0002397 353.8677   6.0907  1.70474355 61526"
      },
      "geometry": {
        "type": "Point",
        "coordinates": [
          123.91529463833281,
          23.756578855609977
        ]
      }
    },
    {
      "type": "Feature",
      "properties": {
        "norad_id": 41175,
        "name": "GSAT0208 (GALILEO 11)",
        "group": "gnss",
        "lat": -52.608588158827764,
        "lon": -10.43674899362037,
        "alt_km": 23229.705536006833,
        "timestamp": "2025-12-09T14:52:26.404798+00:00",
        "meta_object_name": "GSAT0208 (GALILEO 11)",
        "meta_object_id": "2015-079B",
        "meta_epoch": "2025-12-08T14:51:40.201920",
        "meta_mean_motion": 1.70474231,
        "meta_eccentricity": 0.00018593,
        "meta_inclination": 55.7088,
        "meta_ra_of_asc_node": 106.4912,
        "meta_arg_of_pericenter": 3.1611,
        "meta_mean_anomaly": 356.8026,
        "meta_ephemeris_type": 0,
        "meta_classification_type": "U",
        "meta_norad_cat_id": 41175,
        "meta_element_set_no": 999,
        "meta_rev_at_epoch": 6194,
        "meta_bstar": 0,
        "meta_mean_motion_dot": 1e-07,
        "meta_mean_motion_ddot": 0,
        "tle_line1": "1 41175U 15079B   25342.61921530  .00000010  00000+0  00000+0 0  9992",
        "tle_line2": "2 41175  55.7088 106.4912 0001859   3.1611 356.8026  1.70474231 61940"
      },
      "geometry": {
        "type": "Point",
        "coordinates": [
          -10.43674899362037,
          -52.608588158827764
        ]
      }
    },
    {
      "type": "Feature",
      "properties": {
        "norad_id": 41241,
        "name": "IRNSS-1E",
        "group": "gnss",
        "lat": -4.825191698738382,
        "lon": 54.989873364849764,
        "alt_km": 35875.03019048975,
        "timestamp": "2025-12-09T14:52:26.404849+00:00",
        "meta_object_name": "IRNSS-1E",
        "meta_object_id": "2016-003A",
        "meta_epoch": "2025-12-08T15:50:39.371424",
        "meta_mean_motion": 1.00275569,
        "meta_eccentricity": 0.00218793,
        "meta_inclination": 32.8166,
        "meta_ra_of_asc_node": 62.5131,
        "meta_arg_of_pericenter": 186.973,
        "meta_mean_anomaly": 177.6191,
        "meta_ephemeris_type": 0,
        "meta_classification_type": "U",
        "meta_norad_cat_id": 41241,
        "meta_element_set_no": 999,
        "meta_rev_at_epoch": 3617,
        "meta_bstar": 0,
        "meta_mean_motion_dot": -3.11e-06,
        "meta_mean_motion_ddot": 0,
        "tle_line1": "1 41241U 16003A   25342.66017791 -.00000311  00000+0  00000+0 0  9999",
        "tle_line2": "2 41241  32.8166  62.5131 0021879 186.9730 177.6191  1.00275569 36173"
      },
      "geometry": {
        "type": "Point",
        "coordinates": [
          54.989873364849764,
          -4.825191698738382
        ]
      }
    },
    {
      "type": "Feature",
      "properties": {
        "norad_id": 41328,
        "name": "GPS BIIF-12 (PRN 32)",
        "group": "gnss",
        "lat": 20.333106528157384,
        "lon": -97.82566676424352,
        "alt_km": 20171.047643565333,
        "timestamp": "2025-12-09T14:52:26.404863+00:00",
        "meta_object_name": "GPS BIIF-12 (PRN 32)",
        "meta_object_id": "2016-007A",
        "meta_epoch": "2025-12-08T09:43:25.720320",
        "meta_mean_motion": 2.0056088,
        "meta_eccentricity": 0.0091947,
        "meta_inclination": 55.4038,
        "meta_ra_of_asc_node": 97.0291,
        "meta_arg_of_pericenter": 243.4665,
        "meta_mean_anomaly": 115.5721,
        "meta_ephemeris_type": 0,
        "meta_classification_type": "U",
        "meta_norad_cat_id": 41328,
        "meta_element_set_no": 999,
        "meta_rev_at_epoch": 7201,
        "meta_bstar": 0,
        "meta_mean_motion_dot": 1e-08,
        "meta_mean_motion_ddot": 0,
        "tle_line1": "1 41328U 16007A   25342.40515880  .00000001  00000+0  00000+0 0  9998",
        "tle_line2": "2 41328  55.4038  97.0291 0091947 243.4665 115.5721  2.00560880 72014"
      },
      "geometry": {
        "type": "Point",
        "coordinates": [
          -97.82566676424352,
          20.333106528157384
        ]
      }
    }
  ]
}